[Satellite]
VERSION=1.1
NAME=CZ-6A R/B
NICKNAME=CZ-6A R/B
TLE1=1 54236U 22151B   22342.48862974 -.00000027  00000+0  95066-5 0  9992
TLE2=2 54236  98.8283 347.0751 0045855  11.7123 348.5102 14.08892832  3437
STATUS=0
